[{"OBJECT_NAME":"SJ-11-02","OBJECT_ID":"2011-039A","EPOCH":"2026-03-09T16:40:57.382176","MEAN_MOTION":14.64358784,"ECCENTRICITY":0.00098038,"INCLINATION":98.2752,"RA_OF_ASC_NODE":318.2771,"ARG_OF_PERICENTER":209.2906,"MEAN_ANOMALY":212.5003,"EPHEMERIS_TYPE":0,"CLASSIFICATION_TYPE":"U","NORAD_CAT_ID":37765,"ELEMENT_SET_NO":999,"REV_AT_EPOCH":77939,"BSTAR":0.00016869851,"MEAN_MOTION_DOT":8.42e-6,"MEAN_MOTION_DDOT":0},{"OBJECT_NAME":"PEGASUS R\/B","OBJECT_ID":"2003-017B","EPOCH":"2026-03-09T07:00:12.128256","MEAN_MOTION":14.64922101,"ECCENTRICITY":0.00050271,"INCLINATION":29.0046,"RA_OF_ASC_NODE":29.9297,"ARG_OF_PERICENTER":143.0117,"MEAN_ANOMALY":217.0819,"EPHEMERIS_TYPE":0,"CLASSIFICATION_TYPE":"U","NORAD_CAT_ID":27784,"ELEMENT_SET_NO":999,"REV_AT_EPOCH":22252,"BSTAR":0.00013831665,"MEAN_MOTION_DOT":8.63e-6,"MEAN_MOTION_DDOT":0}]
